STARLINK-1234
1 45190U 20012N   26061.25002314  .00180145  00000+0  21228-2 0  9991
2 45190  53.0454   1.6182 0003774 305.1236 187.6074 15.60280965  5977
